{
    "links": {
        "self": "http://www.neowsapp.com/rest/v1/neo/3763419?api_key=iIulBulltgU6a56xZRHN4H3l9WmuAYTsLGpBGhQ2"
    },
    "id": "3763419",
    "neo_reference_id": "3763419",
    "name": "(2016 VJ2)",
    "designation": "2016 VJ2",
    "nasa_jpl_url": "http://ssd.jpl.nasa.gov/sbdb.cgi?sstr=3763419",
    "absolute_magnitude_h": 24.9,
    "estimated_diameter": {
        "kilometers": {
            "estimated_diameter_min": 0.0278326768,
            "estimated_diameter_max": 0.0622357573
        },
        "meters": {
            "estimated_diameter_min": 27.8326768072,
            "estimated_diameter_max": 62.2357573367
        },
        "miles": {
            "estimated_diameter_min": 0.0172944182,
            "estimated_diameter_max": 0.0386714948
        },
        "feet": {
            "estimated_diameter_min": 91.3145593761,
            "estimated_diameter_max": 204.1855621004
        }
    },
    "is_potentially_hazardous_asteroid": false,
    "close_approach_data": [
        {
            "close_approach_date": "2016-11-21",
            "close_approach_date_full": "2016-Nov-21 20:38",
            "epoch_date_close_approach": 1479760680000,
            "relative_velocity": {
                "kilometers_per_second": "7.5606719879",
                "kilometers_per_hour": "27218.4191562663",
                "miles_per_hour": "16912.4671696256"
            },
            "miss_distance": {
                "astronomical": "0.0660845974",
                "lunar": "25.7069083886",
                "kilometers": "9886115.010847538",
                "miles": "6142947.0155025044"
            },
            "orbiting_body": "Earth"
        }
    ],
    "orbital_data": {
        "orbit_id": "6",
        "orbit_determination_date": "2018-02-10 07:08:30",
        "first_observation_date": "2016-11-06",
        "last_observation_date": "2016-11-25",
        "data_arc_in_days": 19,
        "observations_used": 41,
        "orbit_uncertainty": "8",
        "minimum_orbit_intersection": ".0474535",
        "jupiter_tisserand_invariant": "3.640",
        "epoch_osculation": "2457701.5",
        "eccentricity": ".4989142771951459",
        "semi_major_axis": "2.033240480212236",
        "inclination": "4.317298516335493",
        "ascending_node_longitude": "49.57604500108295",
        "orbital_period": "1058.964858131735",
        "perihelion_distance": "1.018827775663237",
        "perihelion_argument": "31.55181305966465",
        "aphelion_distance": "3.047653184761235",
        "perihelion_time": "2457730.843278960416",
        "mean_anomaly": "350.0246166389446",
        "mean_motion": ".3399546238343785",
        "equinox": "J2000",
        "orbit_class": {
            "orbit_class_type": "AMO",
            "orbit_class_description": "Near-Earth asteroid orbits similar to that of 1221 Amor",
            "orbit_class_range": "1.017 AU < q (perihelion) < 1.3 AU"
        }
    },
    "is_sentry_object": false
}